{
  "type": "FeatureCollection",
  "features": [
    {
      "type": "Feature",
      "properties": {
        "norad_id": 30728,
        "name": "FENGYUN 1C DEB",
        "group": "fengyun-1c-debris",
        "lat": 47.42067993972076,
        "lon": -9.221993635124136,
        "alt_km": 739.8486051539294,
        "timestamp": "2025-12-19T16:54:44.539936+00:00",
        "meta_object_name": "FENGYUN 1C DEB",
        "meta_object_id": "1999-025ASN",
        "meta_epoch": "2025-12-18T23:49:15.165696",
        "meta_mean_motion": 14.23476561,
        "meta_eccentricity": 0.00994328,
        "meta_inclination": 98.5291,
        "meta_ra_of_asc_node": 359.4869,
        "meta_arg_of_pericenter": 63.9673,
        "meta_mean_anomaly": 297.1704,
        "meta_ephemeris_type": 0,
        "meta_classification_type": "U",
        "meta_norad_cat_id": 30728,
        "meta_element_set_no": 999,
        "meta_rev_at_epoch": 97778,
        "meta_bstar": 6.3901352e-05,
        "meta_mean_motion_dot": 1.11e-06,
        "meta_mean_motion_ddot": 0,
        "tle_line1": "1 30728U 99025ASN 25352.99253664  .00000111  00000+0  63901-4 0  9991",
        "tle_line2": "2 30728  98.5291 359.4869 0099432  63.9673 297.1704 14.23476561977788"
      },
      "geometry": {
        "type": "Point",
        "coordinates": [
          -9.221993635124136,
          47.42067993972076
        ]
      }
    },
    {
      "type": "Feature",
      "properties": {
        "norad_id": 30730,
        "name": "FENGYUN 1C DEB",
        "group": "fengyun-1c-debris",
        "lat": 36.81413579542508,
        "lon": 26.189330823447676,
        "alt_km": 748.6482417777979,
        "timestamp": "2025-12-19T16:54:44.539946+00:00",
        "meta_object_name": "FENGYUN 1C DEB",
        "meta_object_id": "1999-025ASQ",
        "meta_epoch": "2025-12-19T01:51:45.103968",
        "meta_mean_motion": 14.25503922,
        "meta_eccentricity": 0.00780249,
        "meta_inclination": 98.6177,
        "meta_ra_of_asc_node": 32.0906,
        "meta_arg_of_pericenter": 30.8829,
        "meta_mean_anomaly": 30.1662,
        "meta_ephemeris_type": 0,
        "meta_classification_type": "U",
        "meta_norad_cat_id": 30730,
        "meta_element_set_no": 999,
        "meta_rev_at_epoch": 97096,
        "meta_bstar": 0.00077223451,
        "meta_mean_motion_dot": 1.841e-05,
        "meta_mean_motion_ddot": 0,
        "tle_line1": "1 30730U 99025ASQ 25353.07760537  .00001841  00000+0  77223-3 0  9998",
        "tle_line2": "2 30730  98.6177  32.0906 0078024  30.8829  30.1662 14.25503922970966"
      },
      "geometry": {
        "type": "Point",
        "coordinates": [
          26.189330823447676,
          36.81413579542508
        ]
      }
    },
    {
      "type": "Feature",
      "properties": {
        "norad_id": 30731,
        "name": "FENGYUN 1C DEB",
        "group": "fengyun-1c-debris",
        "lat": -71.74800706538483,
        "lon": -134.854022630024,
        "alt_km": 749.8995343014785,
        "timestamp": "2025-12-19T16:54:44.539957+00:00",
        "meta_object_name": "FENGYUN 1C DEB",
        "meta_object_id": "1999-025ASR",
        "meta_epoch": "2025-12-19T04:13:07.428288",
        "meta_mean_motion": 14.41851072,
        "meta_eccentricity": 0.00154396,
        "meta_inclination": 98.86,
        "meta_ra_of_asc_node": 72.825,
        "meta_arg_of_pericenter": 227.6448,
        "meta_mean_anomaly": 162.433,
        "meta_ephemeris_type": 0,
        "meta_classification_type": "U",
        "meta_norad_cat_id": 30731,
        "meta_element_set_no": 999,
        "meta_rev_at_epoch": 97449,
        "meta_bstar": 0.0016239936,
        "meta_mean_motion_dot": 5.275e-05,
        "meta_mean_motion_ddot": 0,
        "tle_line1": "1 30731U 99025ASR 25353.17578042  .00005275  00000+0  16240-2 0  9994",
        "tle_line2": "2 30731  98.8600  72.8250 0015439 227.6448 162.4330 14.41851072974491"
      },
      "geometry": {
        "type": "Point",
        "coordinates": [
          -134.854022630024,
          -71.74800706538483
        ]
      }
    },
    {
      "type": "Feature",
      "properties": {
        "norad_id": 30732,
        "name": "FENGYUN 1C DEB",
        "group": "fengyun-1c-debris",
        "lat": 46.91840963836625,
        "lon": -156.85968938856428,
        "alt_km": 826.5608329848501,
        "timestamp": "2025-12-19T16:54:44.539967+00:00",
        "meta_object_name": "FENGYUN 1C DEB",
        "meta_object_id": "1999-025ASS",
        "meta_epoch": "2025-12-19T01:09:39.587904",
        "meta_mean_motion": 14.03909739,
        "meta_eccentricity": 0.0123942,
        "meta_inclination": 98.8039,
        "meta_ra_of_asc_node": 12.9656,
        "meta_arg_of_pericenter": 191.2994,
        "meta_mean_anomaly": 226.9697,
        "meta_ephemeris_type": 0,
        "meta_classification_type": "U",
        "meta_norad_cat_id": 30732,
        "meta_element_set_no": 999,
        "meta_rev_at_epoch": 96280,
        "meta_bstar": 0.00017053142,
        "meta_mean_motion_dot": 2.46e-06,
        "meta_mean_motion_ddot": 0,
        "tle_line1": "1 30732U 99025ASS 25353.04837486  .00000246  00000+0  17053-3 0  9998",
        "tle_line2": "2 30732  98.8039  12.9656 0123942 191.2994 226.9697 14.03909739962800"
      },
      "geometry": {
        "type": "Point",
        "coordinates": [
          -156.85968938856428,
          46.91840963836625
        ]
      }
    },
    {
      "type": "Feature",
      "properties": {
        "norad_id": 30735,
        "name": "FENGYUN 1C DEB",
        "group": "fengyun-1c-debris",
        "lat": 33.84716310299625,
        "lon": -109.31549832034786,
        "alt_km": 801.6085363426891,
        "timestamp": "2025-12-19T16:54:44.539978+00:00",
        "meta_object_name": "FENGYUN 1C DEB",
        "meta_object_id": "1999-025ASV",
        "meta_epoch": "2025-12-17T03:39:29.833632",
        "meta_mean_motion": 14.23998681,
        "meta_eccentricity": 0.00602079,
        "meta_inclination": 98.764,
        "meta_ra_of_asc_node": 62.2025,
        "meta_arg_of_pericenter": 232.6761,
        "meta_mean_anomaly": 157.0622,
        "meta_ephemeris_type": 0,
        "meta_classification_type": "U",
        "meta_norad_cat_id": 30735,
        "meta_element_set_no": 999,
        "meta_rev_at_epoch": 96811,
        "meta_bstar": 0.0013372818,
        "meta_mean_motion_dot": 3.084e-05,
        "meta_mean_motion_ddot": 0,
        "tle_line1": "1 30735U 99025ASV 25351.15242863  .00003084  00000+0  13373-2 0  9993",
        "tle_line2": "2 30735  98.7640  62.2025 0060207 232.6761 157.0622 14.23998681968112"
      },
      "geometry": {
        "type": "Point",
        "coordinates": [
          -109.31549832034786,
          33.84716310299625
        ]
      }
    },
    {
      "type": "Feature",
      "properties": {
        "norad_id": 30736,
        "name": "FENGYUN 1C DEB",
        "group": "fengyun-1c-debris",
        "lat": -80.67476365563803,
        "lon": 101.20355566575729,
        "alt_km": 1145.4704859213934,
        "timestamp": "2025-12-19T16:54:44.539988+00:00",
        "meta_object_name": "FENGYUN 1C DEB",
        "meta_object_id": "1999-025ASW",
        "meta_epoch": "2025-12-17T02:06:23.222592",
        "meta_mean_motion": 13.61651922,
        "meta_eccentricity": 0.02795335,
        "meta_inclination": 98.7804,
        "meta_ra_of_asc_node": 28.5939,
        "meta_arg_of_pericenter": 42.9136,
        "meta_mean_anomaly": 11.775,
        "meta_ephemeris_type": 0,
        "meta_classification_type": "U",
        "meta_norad_cat_id": 30736,
        "meta_element_set_no": 999,
        "meta_rev_at_epoch": 92912,
        "meta_bstar": 0.0014948037,
        "meta_mean_motion_dot": 1.45e-05,
        "meta_mean_motion_ddot": 0,
        "tle_line1": "1 30736U 99025ASW 25351.08776878  .00001450  00000+0  14948-2 0  9998",
        "tle_line2": "2 30736  98.7804  28.5939 0279533  42.9136  11.7750 13.61651922929127"
      },
      "geometry": {
        "type": "Point",
        "coordinates": [
          101.20355566575729,
          -80.67476365563803
        ]
      }
    },
    {
      "type": "Feature",
      "properties": {
        "norad_id": 30737,
        "name": "FENGYUN 1C DEB",
        "group": "fengyun-1c-debris",
        "lat": -70.41219621967767,
        "lon": 0.8934009314366046,
        "alt_km": 856.0060438783876,
        "timestamp": "2025-12-19T16:54:44.539998+00:00",
        "meta_object_name": "FENGYUN 1C DEB",
        "meta_object_id": "1999-025ASX",
        "meta_epoch": "2025-12-19T05:28:30.405216",
        "meta_mean_motion": 14.18262232,
        "meta_eccentricity": 0.00243555,
        "meta_inclination": 98.5796,
        "meta_ra_of_asc_node": 335.3294,
        "meta_arg_of_pericenter": 113.4366,
        "meta_mean_anomaly": 262.4729,
        "meta_ephemeris_type": 0,
        "meta_classification_type": "U",
        "meta_norad_cat_id": 30737,
        "meta_element_set_no": 999,
        "meta_rev_at_epoch": 97125,
        "meta_bstar": 0.00023999555,
        "meta_mean_motion_dot": 4.53e-06,
        "meta_mean_motion_ddot": 0,
        "tle_line1": "1 30737U 99025ASX 25353.22812969  .00000453  00000+0  24000-3 0  9992",
        "tle_line2": "2 30737  98.5796 335.3294 0024355 113.4366 262.4729 14.18262232971255"
      },
      "geometry": {
        "type": "Point",
        "coordinates": [
          0.8934009314366046,
          -70.41219621967767
        ]
      }
    }
  ]
}